295P/LINEAR,e,21.1261,7.6351,73.1007,5.318970,0.0803457,0.61632417,85.1006,04/07.0/2017,2000,g 12.0,4.0
# From MPC 92278
296P/Garradd,e,25.2206,263.6393,350.0024,3.500474,0.1504921,0.47798720,170.3927,04/07.0/2017,2000,g 14.0,4.0
# From MPC102956
297P/Beshore,e,10.3240,97.6804,132.2754,3.445774,0.1540898,0.31934154,146.4649,04/07.0/2017,2000,g 15.0,4.0
# From MPC 87919
298P/Christensen,e,7.8719,52.8326,100.7620,3.591210,0.1448248,0.38787549,179.3153,04/07.0/2017,2000,g 15.0,4.0
# From MPC101100
299P/Catalina-PANSTARRS,e,10.4759,271.6617,323.6416,4.378459,0.1075777,0.28279922,83.1634,04/07.0/2017,2000,g 11.5,4.0
# From MPC 89314
300P/Catalina,e,5.6772,95.7188,222.8691,2.697876,0.2224186,0.69187897,232.3237,04/07.0/2017,2000,g 16.0,4.0
# From MPC 89014
301P/LINEAR-NEAT,e,10.3660,351.1593,193.6523,5.729860,0.0718601,0.58737781,68.1117,04/07.0/2017,2000,g 13.0,4.0
# From MPC101100
302P/Lemmon-PANSTARRS,e,6.0305,121.7769,208.2455,4.280558,0.1112893,0.22863256,38.0240,04/07.0/2017,2000,g 12.5,4.0
# From MPC 92278
303P/NEAT,e,7.0042,348.0125,356.9246,5.057792,0.0866488,0.50842597,78.5771,04/07.0/2017,2000,g 13.5,4.0
# From MPC 92987
304P/Ory,e,2.8379,58.7474,331.4595,3.219046,0.1706528,0.59210454,160.3628,04/07.0/2017,2000,g 16.5,4.0
# From MPC101100
305P/Skiff,e,11.6174,240.2891,147.1753,4.647742,0.0983651,0.69371689,85.6592,04/07.0/2017,2000,g 18.0,4.0
# From MPC 92278
306P/LINEAR,e,8.3330,341.4810,0.8809,3.116487,0.1791455,0.59462340,177.1577,04/07.0/2017,2000,g 19.0,4.0
# From MPC 91619
307P/LINEAR,e,4.4254,158.0912,222.3267,5.806339,0.0704451,0.67341360,59.1186,04/07.0/2017,2000,g 15.0,4.0
# From MPC 96869
308P/Lagerkvist-Carsenty,e,4.8488,63.1339,333.9881,6.626349,0.0577820,0.36234431,40.5223,04/07.0/2017,2000,g 13.0,2.0
# From MPC 94284
309P/LINEAR,e,17.6631,11.2753,50.0972,4.413009,0.1063168,0.61615826,82.5910,04/07.0/2017,2000,g 15.0,4.0
# From MPC 98566
310P/Hill,e,13.1835,8.9653,31.7434,4.164339,0.1159805,0.42568471,83.3822,04/07.0/2017,2000,g 13.5,4.0
# From MPC101101
311P/PANSTARRS,e,4.9664,279.2604,144.0022,2.188742,0.3043773,0.11567714,331.1783,04/07.0/2017,2000,g 17.0,4.0
# From MPC 92279
312P/NEAT,e,19.8037,144.9043,207.6873,3.458137,0.1532642,0.43059183,165.8917,04/07.0/2017,2000,g 16.0,4.0
# From MPC 92987
313P/Gibbs,e,10.9527,106.4220,253.8333,3.159300,0.1755165,0.24011083,167.2710,04/07.0/2017,2000,g 15.0,4.0
# From MPC103849
314P/Montani,e,3.9783,267.7002,213.7812,7.263246,0.0503510,0.41707227,9.1069,04/07.0/2017,2000,g  9.5,4.0
# From MPC103849
315P/LONEOS,e,17.9150,69.5454,67.2056,5.016356,0.0877246,0.51748776,10.6265,04/07.0/2017,2000,g 11.0,4.0
# From MPC 92279
316P/LONEOS-Christensen,e,9.8978,246.8510,192.1190,4.308317,0.1102155,0.16839761,57.8006,04/07.0/2017,2000,g 13.5,4.0
# From MPC102103
317P/WISE,e,11.9412,275.5411,334.8121,2.967304,0.1928239,0.57011202,115.5196,04/07.0/2017,2000,g 17.5,4.0
# From MPC102103
318P/McNaught-Hartley,e,17.8708,35.7271,313.1723,7.506402,0.0479244,0.67396898,25.5275,04/07.0/2017,2000,g  8.5,6.0
# From MPC 97499
319P/Catalina-McNaught,e,15.0779,111.3567,203.6296,3.572530,0.1459621,0.66526008,94.1857,04/07.0/2017,2000,g 15.0,4.0
# From MPC 95736
320P/McNaught,e,4.9010,295.9242,0.7408,3.096782,0.1808581,0.68478937,110.0797,04/07.0/2017,2000,g 20.5,4.0
# From MPC 94284
321P/SOHO,e,20.1755,165.1966,172.5618,2.422684,0.2613719,0.98108920,0.0000,04/10.3450/2016,2000,g 20.0,4.0
# From MPC102103
322P/SOHO,e,12.5586,359.3620,49.1818,2.515474,0.2470440,0.97890935,0.0000,09/04.0354/2015,2000,g 19.0,4.0
# From MPC102957
323P/SOHO,e,4.6718,323.0115,354.3177,2.583694,0.2373244,0.98464809,0.0000,11/23.6298/2016,2000,g 20.0,4.0
# From MPC102103
324P/La Sagra,e,21.4190,270.6362,58.4505,3.095279,0.1809899,0.15383189,89.5070,04/07.0/2017,2000,g 13.0,4.0
# From MPC 95736
325P/Yang-Gao,e,16.6943,257.6002,343.6019,3.523673,0.1490084,0.59393650,89.5170,04/07.0/2017,2000,g 14.0,4.0
# From MPC103849
326P/Hill,e,2.4706,99.8106,278.7847,4.068638,0.1200965,0.31689148,63.9627,04/07.0/2017,2000,g 13.5,4.0
# From MPC 97499
327P/Van Ness,e,36.2143,173.9628,185.0815,3.565355,0.1464030,0.56230751,70.5160,04/07.0/2017,2000,g 16.0,4.0
# From MPC 97499
328P/LONEOS-Tucker,e,17.6490,341.5997,30.5993,4.201394,0.1144495,0.55093197,53.7877,04/07.0/2017,2000,g 14.5,4.0
# From MPC101101
329P/LINEAR-Catalina,e,21.4690,88.5585,342.6656,5.194834,0.0832428,0.68033930,40.6412,04/07.0/2017,2000,g 13.5,4.0
# From MPC103850
330P/Catalina,e,15.5607,294.3618,186.9917,6.579681,0.0583978,0.55115298,12.8402,04/07.0/2017,2000,g 12.0,4.0
# From MPC 98566
331P/Gibbs,e,9.7406,216.8269,178.8411,3.004811,0.1892249,0.04063829,124.4339,04/07.0/2017,2000,g 12.0,4.0
# From MPEC 2016-K18
332P/Ikeya-Murakami,e,9.3869,3.7805,152.4332,3.085786,0.1818258,0.49026645,70.1414,04/07.0/2017,2000,g 18.0,4.0
# From MPC 99822
332P-A/Ikeya-Murakami,e,9.3869,3.7806,152.4330,3.085786,0.1818258,0.49026625,70.1414,04/07.0/2017,2000,g 18.0,4.0
# From MPEC 2016-EI8
332P-B/Ikeya-Murakami,e,9.3805,3.8028,152.3711,3.082329,0.1821317,0.48970701,359.9699,03/17.0/2016,2000,g 19.0,4.0
# From MPC 99822
332P-C/Ikeya-Murakami,e,9.3860,3.7809,152.4243,3.085752,0.1818287,0.49027115,70.1507,04/07.0/2017,2000,g 16.5,4.0
# From MPEC 2016-ED0
332P-D/Ikeya-Murakami,e,9.3761,3.7923,152.4393,3.081138,0.1822373,0.48977814,359.9486,03/17.0/2016,2000,g 19.0,4.0
# From MPEC 2016-ED0
332P-E/Ikeya-Murakami,e,9.3774,3.8228,152.2825,3.079877,0.1823493,0.48922008,359.9889,03/17.0/2016,2000,g 21.0,4.0
# From MPEC 2016-ED0
332P-F/Ikeya-Murakami,e,9.5293,3.4757,152.8203,3.163214,0.1751908,0.49918860,359.8501,03/17.0/2016,2000,g 21.0,4.0
# From MPEC 2016-ED0
332P-G/Ikeya-Murakami,e,9.2523,3.6955,154.4000,3.050519,0.1849880,0.49200362,359.9006,03/19.0/2016,2000,g 19.0,4.0
# From MPC100285
332P-H/Ikeya-Murakami,e,9.3865,3.7807,152.4252,3.085937,0.1818124,0.49030668,70.1115,04/07.0/2017,2000,g 19.0,4.0
# From MPEC 2016-K18
332P-H/Ikeya-Murakami,e,9.3865,3.7807,152.4252,3.085937,0.1818124,0.49030668,70.1115,04/07.0/2017,2000,g 19.0,4.0
# From MPEC 2016-ED0
332P-I/Ikeya-Murakami,e,9.3791,3.8048,152.3297,3.081767,0.1821815,0.48955490,359.9360,03/17.0/2016,2000,g 20.5,2.0
# From MPEC 2016-EI8
332P-J/Ikeya-Murakami,e,9.4296,3.6729,152.7712,3.115165,0.1792596,0.49429435,359.8613,03/17.0/2016,2000,g 22.5,2.0
# From MPC102103
333P/LINEAR,e,131.8711,115.5722,26.1468,4.225062,0.1134892,0.73608770,41.7753,04/07.0/2017,2000,g 15.0,4.0
# From MPC103850
334P/NEAT,e,19.0546,92.6598,80.5106,6.532361,0.0590335,0.35940080,358.3262,04/07.0/2017,2000,g 10.5,4.0
# From MPC 10028
335P/Gibbs,e,7.2873,330.8497,162.3032,3.579803,0.1455175,0.54492660,75.4008,04/07.0/2017,2000,g 17.0,4.0
# From MPC 99822
336P/McNaught,e,17.8394,298.2574,308.4943,5.022721,0.0875579,0.44620462,5.5103,04/07.0/2017,2000,g 13.5,4.0
# From MPC101101
337P/WISE,e,15.3659,106.1034,160.8727,3.287198,0.1653732,0.49666885,44.2780,04/07.0/2017,2000,g 17.0,4.0
# From MPC103850
338P/McNaught,e,25.3505,9.8100,4.5418,3.904131,0.1277667,0.41040000,17.3629,04/07.0/2017,2000,g 12.0,4.0
# From MPC101101
339P/Gibbs,e,5.7440,172.7702,27.4395,3.691329,0.1389729,0.63702727,35.6899,04/07.0/2017,2000,g 17.0,4.0
# From MPC102957
340P/Boattini,e,2.0784,291.7685,35.7522,4.251333,0.1124388,0.27952818,15.6911,04/07.0/2017,2000,g 13.0,4.0
# From MPC103850
341P/Gibbs,e,3.7937,30.0644,312.1652,4.299971,0.1105365,0.41381722,34.8487,04/07.0/2017,2000,g 12.5,4.0
# From MPC101101
342P/SOHO,e,13.0162,44.3242,57.1255,3.043082,0.1856665,0.98250356,0.0000,07/01.6218/2016,2000,g 20.0,4.0
# From MPC103850
343P/NEAT-LONEOS,e,5.5819,257.2411,137.5425,5.475063,0.0769344,0.58353908,5.3304,04/07.0/2017,2000,g 14.0,4.0
# From MPC103850
344P/Read,e,3.4896,273.1812,140.6146,4.877360,0.0915012,0.42171017,14.3415,04/07.0/2017,2000,g 13.0,4.0
# From MPC102957
345P/LINEAR,e,2.7246,154.5168,196.5638,4.045780,0.1211158,0.21937387,32.1054,04/07.0/2017,2000,g 12.0,4.0
# From MPC103850
346P/Catalina,e,22.1833,102.5144,335.8977,4.475482,0.1040985,0.50376636,5.2569,04/07.0/2017,2000,g 14.0,4.0
# From MPC102958
347P/PANSTARRS,e,11.7447,261.0432,98.4370,3.612204,0.1435641,0.38434487,29.8112,04/07.0/2017,2000,g 15.0,4.0
# From MPC103850
348P/PANSTARRS,e,17.5807,313.7420,133.8243,3.166007,0.1749590,0.30116108,50.5039,04/07.0/2017,2000,g 14.0,4.0
# From MPC103850
349P/Lemmon,e,5.4943,331.8108,256.0033,3.573425,0.1459073,0.30085692,339.2938,04/07.0/2017,2000,g 14.0,4.0
# From MPC103850
350P/McNaught,e,7.3547,65.6040,147.9075,4.111787,0.1182111,0.08818088,323.7712,04/07.0/2017,2000,g 14.0,4.0
# From MPC103849
73P-BT/Schwassmann-Wachmann,e,11.2409,69.6709,199.3739,3.097694,0.1807783,0.68617703,3.8249,04/07.0/2017,2000,g  9.0,4.0
